<?xml version="1.0" encoding="UTF-8"?>
<ndm xmlns:xsi="http://www.w3.org/2001/XMLSchema-instance" xsi:noNamespaceSchemaLocation="https://sanaregistry.org/r/ndmxml_unqualified/ndmxml-2.0.0-master-2.0.xsd">
<omm id="CCSDS_OMM_VERS" version="2.0">
<header><CREATION_DATE/><ORIGINATOR/></header><body><segment><metadata><OBJECT_NAME>ORBCOMM FM24</OBJECT_NAME><OBJECT_ID>1998-053D</OBJECT_ID><CENTER_NAME>EARTH</CENTER_NAME><REF_FRAME>TEME</REF_FRAME><TIME_SYSTEM>UTC</TIME_SYSTEM><MEAN_ELEMENT_THEORY>SGP4</MEAN_ELEMENT_THEORY></metadata><data><meanElements><EPOCH>2024-07-14T21:18:05.469120</EPOCH><MEAN_MOTION>14.35940811</MEAN_MOTION><ECCENTRICITY>.0001347</ECCENTRICITY><INCLINATION>45.0095</INCLINATION><RA_OF_ASC_NODE>65.9727</RA_OF_ASC_NODE><ARG_OF_PERICENTER>358.2850</ARG_OF_PERICENTER><MEAN_ANOMALY>1.7992</MEAN_ANOMALY></meanElements><tleParameters><EPHEMERIS_TYPE>0</EPHEMERIS_TYPE><CLASSIFICATION_TYPE>U</CLASSIFICATION_TYPE><NORAD_CAT_ID>25478</NORAD_CAT_ID><ELEMENT_SET_NO>999</ELEMENT_SET_NO><REV_AT_EPOCH>34892</REV_AT_EPOCH><BSTAR>.73971E-3</BSTAR><MEAN_MOTION_DOT>.2025E-4</MEAN_MOTION_DOT><MEAN_MOTION_DDOT>0</MEAN_MOTION_DDOT></tleParameters></data></segment></body></omm>
<omm id="CCSDS_OMM_VERS" version="2.0">
<header><CREATION_DATE/><ORIGINATOR/></header><body><segment><metadata><OBJECT_NAME>ORBCOMM FM25</OBJECT_NAME><OBJECT_ID>1998-053E</OBJECT_ID><CENTER_NAME>EARTH</CENTER_NAME><REF_FRAME>TEME</REF_FRAME><TIME_SYSTEM>UTC</TIME_SYSTEM><MEAN_ELEMENT_THEORY>SGP4</MEAN_ELEMENT_THEORY></metadata><data><meanElements><EPOCH>2024-07-15T01:31:26.426784</EPOCH><MEAN_MOTION>14.35924023</MEAN_MOTION><ECCENTRICITY>.0003827</ECCENTRICITY><INCLINATION>45.0080</INCLINATION><RA_OF_ASC_NODE>63.3903</RA_OF_ASC_NODE><ARG_OF_PERICENTER>3.1723</ARG_OF_PERICENTER><MEAN_ANOMALY>356.9148</MEAN_ANOMALY></meanElements><tleParameters><EPHEMERIS_TYPE>0</EPHEMERIS_TYPE><CLASSIFICATION_TYPE>U</CLASSIFICATION_TYPE><NORAD_CAT_ID>25479</NORAD_CAT_ID><ELEMENT_SET_NO>999</ELEMENT_SET_NO><REV_AT_EPOCH>34924</REV_AT_EPOCH><BSTAR>.83776E-3</BSTAR><MEAN_MOTION_DOT>.2312E-4</MEAN_MOTION_DOT><MEAN_MOTION_DDOT>0</MEAN_MOTION_DDOT></tleParameters></data></segment></body></omm>
<omm id="CCSDS_OMM_VERS" version="2.0">
<header><CREATION_DATE/><ORIGINATOR/></header><body><segment><metadata><OBJECT_NAME>ORBCOMM FM26</OBJECT_NAME><OBJECT_ID>1998-053F</OBJECT_ID><CENTER_NAME>EARTH</CENTER_NAME><REF_FRAME>TEME</REF_FRAME><TIME_SYSTEM>UTC</TIME_SYSTEM><MEAN_ELEMENT_THEORY>SGP4</MEAN_ELEMENT_THEORY></metadata><data><meanElements><EPOCH>2024-07-15T00:38:29.205024</EPOCH><MEAN_MOTION>14.35329340</MEAN_MOTION><ECCENTRICITY>.0005952</ECCENTRICITY><INCLINATION>45.0082</INCLINATION><RA_OF_ASC_NODE>57.9693</RA_OF_ASC_NODE><ARG_OF_PERICENTER>21.6851</ARG_OF_PERICENTER><MEAN_ANOMALY>338.4248</MEAN_ANOMALY></meanElements><tleParameters><EPHEMERIS_TYPE>0</EPHEMERIS_TYPE><CLASSIFICATION_TYPE>U</CLASSIFICATION_TYPE><NORAD_CAT_ID>25480</NORAD_CAT_ID><ELEMENT_SET_NO>999</ELEMENT_SET_NO><REV_AT_EPOCH>34927</REV_AT_EPOCH><BSTAR>.64688E-3</BSTAR><MEAN_MOTION_DOT>.173E-4</MEAN_MOTION_DOT><MEAN_MOTION_DDOT>0</MEAN_MOTION_DDOT></tleParameters></data></segment></body></omm>
<omm id="CCSDS_OMM_VERS" version="2.0">
<header><CREATION_DATE/><ORIGINATOR/></header><body><segment><metadata><OBJECT_NAME>ORBCOMM FM27</OBJECT_NAME><OBJECT_ID>1998-053G</OBJECT_ID><CENTER_NAME>EARTH</CENTER_NAME><REF_FRAME>TEME</REF_FRAME><TIME_SYSTEM>UTC</TIME_SYSTEM><MEAN_ELEMENT_THEORY>SGP4</MEAN_ELEMENT_THEORY></metadata><data><meanElements><EPOCH>2024-07-14T21:54:45.791136</EPOCH><MEAN_MOTION>14.35913993</MEAN_MOTION><ECCENTRICITY>.0000636</ECCENTRICITY><INCLINATION>45.0068</INCLINATION><RA_OF_ASC_NODE>64.3629</RA_OF_ASC_NODE><ARG_OF_PERICENTER>95.4802</ARG_OF_PERICENTER><MEAN_ANOMALY>264.6118</MEAN_ANOMALY></meanElements><tleParameters><EPHEMERIS_TYPE>0</EPHEMERIS_TYPE><CLASSIFICATION_TYPE>U</CLASSIFICATION_TYPE><NORAD_CAT_ID>25481</NORAD_CAT_ID><ELEMENT_SET_NO>999</ELEMENT_SET_NO><REV_AT_EPOCH>34915</REV_AT_EPOCH><BSTAR>.7548E-3</BSTAR><MEAN_MOTION_DOT>.2068E-4</MEAN_MOTION_DOT><MEAN_MOTION_DDOT>0</MEAN_MOTION_DDOT></tleParameters></data></segment></body></omm>
<omm id="CCSDS_OMM_VERS" version="2.0">
<header><CREATION_DATE/><ORIGINATOR/></header><body><segment><metadata><OBJECT_NAME>ORBCOMM FM28</OBJECT_NAME><OBJECT_ID>1998-053H</OBJECT_ID><CENTER_NAME>EARTH</CENTER_NAME><REF_FRAME>TEME</REF_FRAME><TIME_SYSTEM>UTC</TIME_SYSTEM><MEAN_ELEMENT_THEORY>SGP4</MEAN_ELEMENT_THEORY></metadata><data><meanElements><EPOCH>2024-07-15T12:08:50.211744</EPOCH><MEAN_MOTION>14.36330993</MEAN_MOTION><ECCENTRICITY>.0003074</ECCENTRICITY><INCLINATION>45.0075</INCLINATION><RA_OF_ASC_NODE>359.8125</RA_OF_ASC_NODE><ARG_OF_PERICENTER>66.0566</ARG_OF_PERICENTER><MEAN_ANOMALY>294.0603</MEAN_ANOMALY></meanElements><tleParameters><EPHEMERIS_TYPE>0</EPHEMERIS_TYPE><CLASSIFICATION_TYPE>U</CLASSIFICATION_TYPE><NORAD_CAT_ID>25482</NORAD_CAT_ID><ELEMENT_SET_NO>999</ELEMENT_SET_NO><REV_AT_EPOCH>35008</REV_AT_EPOCH><BSTAR>.73603E-3</BSTAR><MEAN_MOTION_DOT>.2031E-4</MEAN_MOTION_DOT><MEAN_MOTION_DDOT>0</MEAN_MOTION_DDOT></tleParameters></data></segment></body></omm>
<omm id="CCSDS_OMM_VERS" version="2.0">
<header><CREATION_DATE/><ORIGINATOR/></header><body><segment><metadata><OBJECT_NAME>ORBCOMM FM30</OBJECT_NAME><OBJECT_ID>1999-065A</OBJECT_ID><CENTER_NAME>EARTH</CENTER_NAME><REF_FRAME>TEME</REF_FRAME><TIME_SYSTEM>UTC</TIME_SYSTEM><MEAN_ELEMENT_THEORY>SGP4</MEAN_ELEMENT_THEORY></metadata><data><meanElements><EPOCH>2024-07-15T04:35:23.509248</EPOCH><MEAN_MOTION>14.35464440</MEAN_MOTION><ECCENTRICITY>.0004234</ECCENTRICITY><INCLINATION>45.0307</INCLINATION><RA_OF_ASC_NODE>242.7877</RA_OF_ASC_NODE><ARG_OF_PERICENTER>137.2652</ARG_OF_PERICENTER><MEAN_ANOMALY>222.8525</MEAN_ANOMALY></meanElements><tleParameters><EPHEMERIS_TYPE>0</EPHEMERIS_TYPE><CLASSIFICATION_TYPE>U</CLASSIFICATION_TYPE><NORAD_CAT_ID>25980</NORAD_CAT_ID><ELEMENT_SET_NO>999</ELEMENT_SET_NO><REV_AT_EPOCH>28652</REV_AT_EPOCH><BSTAR>.4947E-3</BSTAR><MEAN_MOTION_DOT>.1294E-4</MEAN_MOTION_DOT><MEAN_MOTION_DDOT>0</MEAN_MOTION_DDOT></tleParameters></data></segment></body></omm>
<omm id="CCSDS_OMM_VERS" version="2.0">
<header><CREATION_DATE/><ORIGINATOR/></header><body><segment><metadata><OBJECT_NAME>ORBCOMM FM31</OBJECT_NAME><OBJECT_ID>1999-065B</OBJECT_ID><CENTER_NAME>EARTH</CENTER_NAME><REF_FRAME>TEME</REF_FRAME><TIME_SYSTEM>UTC</TIME_SYSTEM><MEAN_ELEMENT_THEORY>SGP4</MEAN_ELEMENT_THEORY></metadata><data><meanElements><EPOCH>2024-07-15T12:07:08.303808</EPOCH><MEAN_MOTION>14.35457342</MEAN_MOTION><ECCENTRICITY>.0002731</ECCENTRICITY><INCLINATION>45.0219</INCLINATION><RA_OF_ASC_NODE>234.9538</RA_OF_ASC_NODE><ARG_OF_PERICENTER>191.4000</ARG_OF_PERICENTER><MEAN_ANOMALY>168.6786</MEAN_ANOMALY></meanElements><tleParameters><EPHEMERIS_TYPE>0</EPHEMERIS_TYPE><CLASSIFICATION_TYPE>U</CLASSIFICATION_TYPE><NORAD_CAT_ID>25981</NORAD_CAT_ID><ELEMENT_SET_NO>999</ELEMENT_SET_NO><REV_AT_EPOCH>28656</REV_AT_EPOCH><BSTAR>.48574E-3</BSTAR><MEAN_MOTION_DOT>.1267E-4</MEAN_MOTION_DOT><MEAN_MOTION_DDOT>0</MEAN_MOTION_DDOT></tleParameters></data></segment></body></omm>
<omm id="CCSDS_OMM_VERS" version="2.0">
<header><CREATION_DATE/><ORIGINATOR/></header><body><segment><metadata><OBJECT_NAME>ORBCOMM FM32</OBJECT_NAME><OBJECT_ID>1999-065C</OBJECT_ID><CENTER_NAME>EARTH</CENTER_NAME><REF_FRAME>TEME</REF_FRAME><TIME_SYSTEM>UTC</TIME_SYSTEM><MEAN_ELEMENT_THEORY>SGP4</MEAN_ELEMENT_THEORY></metadata><data><meanElements><EPOCH>2024-07-15T04:25:17.552352</EPOCH><MEAN_MOTION>14.34461715</MEAN_MOTION><ECCENTRICITY>.0004928</ECCENTRICITY><INCLINATION>45.0152</INCLINATION><RA_OF_ASC_NODE>250.7386</RA_OF_ASC_NODE><ARG_OF_PERICENTER>171.9366</ARG_OF_PERICENTER><MEAN_ANOMALY>188.1560</MEAN_ANOMALY></meanElements><tleParameters><EPHEMERIS_TYPE>0</EPHEMERIS_TYPE><CLASSIFICATION_TYPE>U</CLASSIFICATION_TYPE><NORAD_CAT_ID>25982</NORAD_CAT_ID><ELEMENT_SET_NO>999</ELEMENT_SET_NO><REV_AT_EPOCH>28630</REV_AT_EPOCH><BSTAR>.50148E-3</BSTAR><MEAN_MOTION_DOT>.1285E-4</MEAN_MOTION_DOT><MEAN_MOTION_DDOT>0</MEAN_MOTION_DDOT></tleParameters></data></segment></body></omm>

</ndm>
