ORBCOMM FM24            
1 25478U 98053D   24196.88756330  .00002025  00000+0  73971-3 0  9991
2 25478  45.0095  65.9727 0001347 358.2850   1.7992 14.35940811348923
ORBCOMM FM25            
1 25479U 98053E   24197.06350031  .00002312  00000+0  83776-3 0  9994
2 25479  45.0080  63.3903 0003827   3.1723 356.9148 14.35924023349247
ORBCOMM FM26            
1 25480U 98053F   24197.02672691  .00001730  00000+0  64688-3 0  9995
2 25480  45.0082  57.9693 0005952  21.6851 338.4248 14.35329340349274
ORBCOMM FM27            
1 25481U 98053G   24196.91302999  .00002068  00000+0  75480-3 0  9991
2 25481  45.0068  64.3629 0000636  95.4802 264.6118 14.35913993349155
ORBCOMM FM28            
1 25482U 98053H   24197.50613671  .00002031  00000+0  73603-3 0  9995
2 25482  45.0075 359.8125 0003074  66.0566 294.0603 14.36330993350081
ORBCOMM FM30            
1 25980U 99065A   24197.19124432  .00001294  00000+0  49470-3 0  9994
2 25980  45.0307 242.7877 0004234 137.2652 222.8525 14.35464440286525
ORBCOMM FM31            
1 25981U 99065B   24197.50495722  .00001267  00000+0  48574-3 0  9997
2 25981  45.0219 234.9538 0002731 191.4000 168.6786 14.35457342286567
ORBCOMM FM32            
1 25982U 99065C   24197.18423093  .00001285  00000+0  50148-3 0  9994
2 25982  45.0152 250.7386 0004928 171.9366 188.1560 14.34461715286306
